OBJECT_NAME,OBJECT_ID,EPOCH,MEAN_MOTION,ECCENTRICITY,INCLINATION,RA_OF_ASC_NODE,ARG_OF_PERICENTER,MEAN_ANOMALY,EPHEMERIS_TYPE,CLASSIFICATION_TYPE,NORAD_CAT_ID,ELEMENT_SET_NO,REV_AT_EPOCH,BSTAR,MEAN_MOTION_DOT,MEAN_MOTION_DDOT
FM-6,2013-058A,2026-07-17T14:25:55.262784,1.00271319,.0001621,0.0095,31.7846,150.7443,213.0085,0,U,39360,999,4637,0,-.25E-6,0
RADUGA-1M 3,2013-062A,2026-07-17T17:33:00.387072,1.00270790,.0002041,6.0344,71.9596,277.3013,244.5085,0,U,39375,999,4641,0,.141E-5,0
SES-8,2013-071A,2026-07-17T15:26:20.014944,1.00271862,.0002705,0.0500,253.0992,220.2605,148.6741,0,U,39460,999,4473,0,-.279E-5,0
INMARSAT 5-F1,2013-073A,2026-07-17T10:08:57.262272,1.00272096,.0000278,0.0168,54.8119,249.6946,205.6017,0,U,39476,999,4588,0,.18E-6,0
TKSAT-1 (TUPAC KATARI),2013-075A,2026-07-17T14:34:09.474240,1.00270215,.0002471,0.0290,224.0255,247.5658,315.1567,0,U,39481,999,4590,0,-.204E-5,0
EXPRESS-AM5,2013-077A,2026-07-17T08:48:25.579872,1.00269966,.0000083,0.0269,282.5793,209.4402,75.3038,0,U,39487,999,4666,0,-.29E-5,0
GSAT-14,2014-001A,2026-07-17T15:20:04.733088,1.00271283,.0001959,0.0168,88.5087,120.5540,30.3666,0,U,39498,999,4568,0,-.86E-6,0
THAICOM 6,2014-002A,2026-07-17T15:21:27.103392,1.00272820,.0004374,0.0538,108.7233,17.1510,118.4410,0,U,39500,999,4576,0,-.131E-5,0
TDRS 12,2014-004A,2026-07-17T11:22:07.735296,1.00271968,.0004306,4.0076,19.5824,202.8483,202.5320,0,U,39504,999,4458,0,-.28E-5,0
ABS-2,2014-006A,2026-07-17T15:20:27.197088,1.00269840,.0003471,0.0221,56.8344,45.0380,138.6191,0,U,39508,999,4558,0,0,0
ATHENA-FIDUS,2014-006B,2026-07-17T13:27:11.349792,1.00271001,.0001397,0.0296,100.4982,24.5456,49.9142,0,U,39509,999,4539,0,.145E-5,0
TURKSAT 4A,2014-007A,2026-07-17T11:45:42.973344,1.00274653,.0001323,0.0896,278.4237,318.5500,276.7826,0,U,39522,999,4527,0,.136E-5,0
EXPRESS-AT1,2014-010A,2026-07-17T15:19:09.716160,1.00309607,.0004453,0.3343,85.3109,56.8966,89.2530,0,U,39612,999,4512,0,-.21E-6,0
EXPRESS-AT2,2014-010B,2026-07-17T15:15:05.211936,1.00270766,.0000216,0.0199,53.1531,20.3053,146.7660,0,U,39613,999,4480,0,0,0
AMAZONAS 4A,2014-011A,2026-07-17T09:30:00.994176,1.00272118,.0004587,0.0592,188.1617,309.8573,225.6833,0,U,39616,999,4501,0,-.262E-5,0
ASTRA 5B,2014-011B,2026-07-17T17:44:47.651424,1.00269492,.0001971,0.0712,304.8835,179.6622,100.6588,0,U,39617,999,4497,0,.127E-5,0
IRNSS-1B,2014-017A,2026-07-17T04:39:38.704608,1.00276401,.00222645,28.8725,239.8858,191.8676,348.3411,0,U,39635,999,4509,0,.121E-5,0
LUCH-5V,2014-023A,2026-07-17T18:32:21.535872,1.00272696,.0002092,5.2066,69.4240,84.6067,154.3756,0,U,39727,999,4466,0,-.28E-5,0
KAZSAT-3,2014-023B,2026-07-17T08:13:38.512704,1.00272366,.0000077,0.0097,10.6641,26.6527,79.7410,0,U,39728,999,4276,0,.51E-6,0
EUTELSAT 3B,2014-030A,2026-07-17T14:59:59.498016,1.00271724,.0004203,0.0613,7.5149,108.3689,47.6323,0,U,39773,999,4437,0,.1E-6,0
ASIASAT 8 (AMOS-7),2014-046A,2026-07-17T15:29:06.664992,1.00272957,.0001542,0.0154,56.6476,43.8212,172.5662,0,U,40107,999,10245,0,-.342E-5,0
ASIASAT 6,2014-052A,2026-07-17T16:59:38.707296,1.00269372,.0000874,0.0167,78.9303,77.5351,153.8619,0,U,40141,999,4338,0,-.371E-5,0
OPTUS 10,2014-054A,2026-07-17T13:06:38.845152,1.00270541,.0001976,0.0406,284.8166,192.6795,170.5313,0,U,40146,999,4333,0,-.157E-5,0
MEASAT-3B,2014-054B,2026-07-17T15:25:11.743392,1.00272853,.0002808,0.0243,356.1146,81.9995,180.1517,0,U,40147,999,4321,0,-.251E-5,0
HIMAWARI-8,2014-060A,2026-07-17T15:39:07.245216,1.00270837,.0001172,0.0161,31.8141,133.8322,145.2650,0,U,40267,999,4306,0,-.285E-5,0
IRNSS-1C,2014-061A,2026-07-17T15:22:49.471104,1.00271939,.002202,6.5924,88.3519,5.7331,155.1277,0,U,40269,999,4299,0,-.174E-5,0
INTELSAT 30 (IS-30),2014-062A,2026-07-17T09:24:01.566720,1.00273680,.0001509,0.0185,56.4382,335.3570,309.3685,0,U,40271,999,709,0,-.161E-5,0
ARSAT 1,2014-062B,2026-07-17T09:30:38.433888,1.00272820,.0001854,0.0593,272.3421,195.6570,258.0556,0,U,40272,999,4292,0,-.27E-5,0
EUTELSAT 53A,2014-064A,2026-07-17T07:15:38.921184,1.00272740,.0001786,0.0167,5.1076,194.9390,256.9847,0,U,40277,999,4187,0,.88E-6,0
GSAT-16,2014-078A,2026-07-17T15:14:50.237088,1.00269163,.0007572,0.0239,63.0474,32.5553,123.6476,0,U,40332,999,4241,0,0,0
DIRECTV 14,2014-078B,2026-07-17T14:30:47.297376,1.00269935,.0000331,0.0105,45.4379,318.7570,49.6761,0,U,40333,999,4234,0,-.135E-5,0
YAMAL 401,2014-082A,2026-07-17T03:26:08.725920,1.00270142,.000042,0.0134,63.7373,55.4085,317.3070,0,U,40345,999,4221,0,0,0
