FM-6                    
1 39360U 13058A   26198.60133406 -.00000025  00000+0  00000+0 0  9993
2 39360   0.0095  31.7846 0001621 150.7443 213.0085  1.00271319 46373
RADUGA-1M 3             
1 39375U 13062A   26198.73125448  .00000141  00000+0  00000+0 0  9993
2 39375   6.0344  71.9596 0002041 277.3013 244.5085  1.00270790 46412
SES-8                   
1 39460U 13071A   26198.64328721 -.00000279  00000+0  00000+0 0  9990
2 39460   0.0500 253.0992 0002705 220.2605 148.6741  1.00271862 44736
INMARSAT 5-F1           
1 39476U 13073A   26198.42288498  .00000018  00000+0  00000+0 0  9991
2 39476   0.0168  54.8119 0000278 249.6946 205.6017  1.00272096 45884
TKSAT-1 (TUPAC KATARI)  
1 39481U 13075A   26198.60705410 -.00000204  00000+0  00000+0 0  9995
2 39481   0.0290 224.0255 0002471 247.5658 315.1567  1.00270215 45903
EXPRESS-AM5             
1 39487U 13077A   26198.36696273 -.00000290  00000+0  00000+0 0  9997
2 39487   0.0269 282.5793 0000083 209.4402  75.3038  1.00269966 46665
GSAT-14                 
1 39498U 14001A   26198.63894367 -.00000086  00000+0  00000+0 0  9994
2 39498   0.0168  88.5087 0001959 120.5540  30.3666  1.00271283 45688
THAICOM 6               
1 39500U 14002A   26198.63989703 -.00000131  00000+0  00000+0 0  9999
2 39500   0.0538 108.7233 0004374  17.1510 118.4410  1.00272820 45765
TDRS 12                 
1 39504U 14004A   26198.47370064 -.00000280  00000+0  00000+0 0  9996
2 39504   4.0076  19.5824 0004306 202.8483 202.5320  1.00271968 44588
ABS-2                   
1 39508U 14006A   26198.63920367  .00000000  00000+0  00000+0 0  9996
2 39508   0.0221  56.8344 0003471  45.0380 138.6191  1.00269840 45588
ATHENA-FIDUS            
1 39509U 14006B   26198.56054803  .00000145  00000+0  00000+0 0  9992
2 39509   0.0296 100.4982 0001397  24.5456  49.9142  1.00271001 45397
TURKSAT 4A              
1 39522U 14007A   26198.49008071  .00000136  00000+0  00000+0 0  9996
2 39522   0.0896 278.4237 0001323 318.5500 276.7826  1.00274653 45274
EXPRESS-AT1             
1 39612U 14010A   26198.63830690 -.00000021  00000+0  00000+0 0  9990
2 39612   0.3343  85.3109 0004453  56.8966  89.2530  1.00309607 45123
EXPRESS-AT2             
1 39613U 14010B   26198.63547699  .00000000  00000+0  00000+0 0  9991
2 39613   0.0199  53.1531 0000216  20.3053 146.7660  1.00270766 44808
AMAZONAS 4A             
1 39616U 14011A   26198.39584484 -.00000262  00000+0  00000+0 0  9992
2 39616   0.0592 188.1617 0004587 309.8573 225.6833  1.00272118 45015
ASTRA 5B                
1 39617U 14011B   26198.73944041  .00000127  00000+0  00000+0 0  9999
2 39617   0.0712 304.8835 0001971 179.6622 100.6588  1.00269492 44975
IRNSS-1B                
1 39635U 14017A   26198.19419797  .00000121  00000+0  00000+0 0  9994
2 39635  28.8725 239.8858 0022264 191.8676 348.3411  1.00276401 45090
LUCH-5V                 
1 39727U 14023A   26198.77247148 -.00000280  00000+0  00000+0 0  9993
2 39727   5.2066  69.4240 0002092  84.6067 154.3756  1.00272696 44662
KAZSAT-3                
1 39728U 14023B   26198.34280686  .00000051  00000+0  00000+0 0  9996
2 39728   0.0097  10.6641 0000077  26.6527  79.7410  1.00272366 42761
EUTELSAT 3B             
1 39773U 14030A   26198.62499419  .00000010  00000+0  00000+0 0  9996
2 39773   0.0613   7.5149 0004203 108.3689  47.6323  1.00271724 44378
ASIASAT 8 (AMOS-7)      
1 40107U 14046A   26198.64521603 -.00000342  00000+0  00000+0 0  9998
2 40107   0.0154  56.6476 0001542  43.8212 172.5662  1.00272957102454
ASIASAT 6               
1 40141U 14052A   26198.70808689 -.00000371  00000+0  00000+0 0  9994
2 40141   0.0167  78.9303 0000874  77.5351 153.8619  1.00269372 43384
OPTUS 10                
1 40146U 14054A   26198.54628293 -.00000157  00000+0  00000+0 0  9996
2 40146   0.0406 284.8166 0001976 192.6795 170.5313  1.00270541 43337
MEASAT-3B               
1 40147U 14054B   26198.64249703 -.00000251  00000+0  00000+0 0  9998
2 40147   0.0243 356.1146 0002808  81.9995 180.1517  1.00272853 43213
HIMAWARI-8              
1 40267U 14060A   26198.65216719 -.00000285  00000+0  00000+0 0  9997
2 40267   0.0161  31.8141 0001172 133.8322 145.2650  1.00270837 43064
IRNSS-1C                
1 40269U 14061A   26198.64085036 -.00000174  00000+0  00000+0 0  9992
2 40269   6.5924  88.3519 0022020   5.7331 155.1277  1.00271939 42992
INTELSAT 30 (IS-30)     
1 40271U 14062A   26198.39168480 -.00000161  00000+0  00000+0 0  9999
2 40271   0.0185  56.4382 0001509 335.3570 309.3685  1.00273680  7096
ARSAT 1                 
1 40272U 14062B   26198.39627817 -.00000270  00000+0  00000+0 0  9995
2 40272   0.0593 272.3421 0001854 195.6570 258.0556  1.00272820 42926
EUTELSAT 53A            
1 40277U 14064A   26198.30253381  .00000088  00000+0  00000+0 0  9990
2 40277   0.0167   5.1076 0001786 194.9390 256.9847  1.00272740 41876
GSAT-16                 
1 40332U 14078A   26198.63530367  .00000000  00000+0  00000+0 0  9999
2 40332   0.0239  63.0474 0007572  32.5553 123.6476  1.00269163 42414
DIRECTV 14              
1 40333U 14078B   26198.60471409 -.00000135  00000+0  00000+0 0  9998
2 40333   0.0105  45.4379 0000331 318.7570  49.6761  1.00269935 42342
YAMAL 401               
1 40345U 14082A   26198.14315655  .00000000  00000+0  00000+0 0  9995
2 40345   0.0134  63.7373 0000420  55.4085 317.3070  1.00270142 42215
